{
  "norad_id": 66530,
  "name": "STARLINK-35961",
  "history": [
    {
      "epoch": "2026-03-28T14:21:55.378368",
      "apogee_km": 483.74219330741835,
      "perigee_km": 482.25744329993813,
      "latitude_deg": 32.54809290709761,
      "longitude_deg": 170.46153151988983,
      "semi_major_axis_km": 6861.136818303678,
      "eccentricity": 0.0001082,
      "inclination_deg": 43.0027,
      "raan_deg": 171.2952,
      "arg_perigee_deg": 265.896,
      "mean_anomaly_deg": 94.1768,
      "mean_motion_rev_day": 15.27596457
    }
  ]
}