{"fetched_at":"2026-03-30T06:02:59Z","count":15439,"tles":[{"name":"STARLINK-35961","line1":"1 66530U 25265Q   26087.59855762  .00021940  00000+0  80402-3 0  9992","line2":"2 66530  43.0027 171.2952 0001082 265.8960  94.1768 15.27596457 20000","category":"Starlink"}]}